{"fetched_at":"2026-03-29T02:12:04Z","count":15717,"tles":[{"name":"CO3D 4","line1":"1 64901U 25156C   26087.15993388  .00005709  00000+0  26651-3 0  9991","line2":"2 64901  97.4324 167.0161 0001227 158.0019 202.1269 15.20217324 37222","category":"Other"}]}